KUIPER-00247            
1 67152U 25301V   26085.50002314  .00016862  00000+0  87409-3 0  9991
2 67152  51.8788 345.6293 0011742 118.1342  89.2404 15.16219943  5853
KUIPER-00248            
1 67153U 25301W   26085.14722735  .00031593  00000+0  83722-3 0  9990
2 67153  51.8682 345.9870 0010839 102.9787 257.2411 15.38009595 16436
KUIPER-00249            
1 67154U 25301X   26085.50002314  .00006351  00000+0  25685-3 0  9993
2 67154  51.8730 344.3532 0008041 113.1620 327.9715 15.25951302  3886
KUIPER-00250            
1 67155U 25301Y   26085.45292298  .00003000  00000+0  45751-3 0  9994
2 67155  51.9014 355.9705 0001485 123.2817 236.8287 14.76463655 16181
KUIPER-00251            
1 67156U 25301Z   26085.50002314 -.01829024  00000+0 -11398+0 0  9990
2 67156  51.8827 345.3724 0009779 114.1768 162.1199 15.12461514  3637
KUIPER-00252            
1 67157U 25301AA  26085.50002314 -.01730384  00000+0 -13764+0 0  9990
2 67157  51.8850 346.6417 0008308 134.6009 312.8210 15.03404219  5100
KUIPER-00261            
1 67158U 25301AB  26085.44824270  .00002440  00000+0  37768-3 0  9993
2 67158  51.9030 356.3296 0002236  34.0754 326.0350 14.76487324 16144
KUIPER-00265            
1 67159U 25301AC  26085.48607734  .00004575  00000+0  62882-3 0  9998
2 67159  51.9043  11.3431 0001196  92.0851 268.0248 14.79929461 15971
KUIPER-00159            
1 67764U 26030A   26085.41715816  .00040045  00000+0  11144-2 0  9990
2 67764  51.8855 138.4578 0006193  92.4738 267.6957 15.36415571  7661
KUIPER-00160            
1 67765U 26030B   26085.16065737  .00044852  00000+0  12549-2 0  9993
2 67765  51.8811 139.7227 0005999 100.5141 259.6522 15.36197550  7620
KUIPER-00177            
1 67766U 26030C   26085.50002314  .00011747  00000+0  86290-3 0  9996
2 67766  51.9032 139.6726 0005034  86.6122 220.6696 15.03819455  5541
KUIPER-00178            
1 67767U 26030D   26085.50002314  .00020295  00000+0  10291-2 0  9992
2 67767  51.8849 139.1734 0008567  95.8545 193.1761 15.16893933  3380
KUIPER-00180            
1 67768U 26030E   26085.52891842 -.00060825  00000+0 -21034-2 0  9999
2 67768  51.8830 139.1533 0013888 119.0094 241.2283 15.29362784  7666
KUIPER-00197            
1 67769U 26030F   26085.53061166  .00027251  00000+0  75074-3 0  9997
2 67769  51.8834 137.7176 0002463  72.7408 287.3848 15.36936730  7685
KUIPER-00198            
1 67770U 26030G   26085.47420265  .00038038  00000+0  10526-2 0  9996
2 67770  51.8829 138.0762 0003862  88.5655 271.5773 15.36625421  7672
KUIPER-00199            
1 67771U 26030H   26085.45530126  .00019411  00000+0  57534-3 0  9998
2 67771  51.8822 138.6844 0011165 114.5914 245.6236 15.34802555  7664
KUIPER-00200            
1 67772U 26030J   26085.31757223  .00028330  00000+0  76359-3 0  9999
2 67772  51.8812 138.5347 0001546   7.6913 352.4097 15.37594240  7657
