[{"OBJECT_NAME":"KUIPER-00247","OBJECT_ID":"2025-301V","EPOCH":"2026-03-26T12:00:01.999296","MEAN_MOTION":15.16219943,"ECCENTRICITY":0.0011742,"INCLINATION":51.8788,"RA_OF_ASC_NODE":345.6293,"ARG_OF_PERICENTER":118.1342,"MEAN_ANOMALY":89.2404,"EPHEMERIS_TYPE":0,"CLASSIFICATION_TYPE":"U","NORAD_CAT_ID":67152,"ELEMENT_SET_NO":999,"REV_AT_EPOCH":585,"BSTAR":0.00087409,"MEAN_MOTION_DOT":0.00016862,"MEAN_MOTION_DDOT":0},{"OBJECT_NAME":"KUIPER-00248","OBJECT_ID":"2025-301W","EPOCH":"2026-03-26T03:32:00.443040","MEAN_MOTION":15.38009595,"ECCENTRICITY":0.00108392,"INCLINATION":51.8682,"RA_OF_ASC_NODE":345.987,"ARG_OF_PERICENTER":102.9787,"MEAN_ANOMALY":257.2411,"EPHEMERIS_TYPE":0,"CLASSIFICATION_TYPE":"U","NORAD_CAT_ID":67153,"ELEMENT_SET_NO":999,"REV_AT_EPOCH":1643,"BSTAR":0.00083721654,"MEAN_MOTION_DOT":0.00031593,"MEAN_MOTION_DDOT":0},{"OBJECT_NAME":"KUIPER-00249","OBJECT_ID":"2025-301X","EPOCH":"2026-03-26T12:00:01.999296","MEAN_MOTION":15.25951302,"ECCENTRICITY":0.0008041,"INCLINATION":51.873,"RA_OF_ASC_NODE":344.3532,"ARG_OF_PERICENTER":113.162,"MEAN_ANOMALY":327.9715,"EPHEMERIS_TYPE":0,"CLASSIFICATION_TYPE":"U","NORAD_CAT_ID":67154,"ELEMENT_SET_NO":999,"REV_AT_EPOCH":388,"BSTAR":0.00025685,"MEAN_MOTION_DOT":6.351e-5,"MEAN_MOTION_DDOT":0},{"OBJECT_NAME":"KUIPER-00250","OBJECT_ID":"2025-301Y","EPOCH":"2026-03-26T10:52:12.545472","MEAN_MOTION":14.76463655,"ECCENTRICITY":0.0001485,"INCLINATION":51.9014,"RA_OF_ASC_NODE":355.9705,"ARG_OF_PERICENTER":123.2817,"MEAN_ANOMALY":236.8287,"EPHEMERIS_TYPE":0,"CLASSIFICATION_TYPE":"U","NORAD_CAT_ID":67155,"ELEMENT_SET_NO":999,"REV_AT_EPOCH":1618,"BSTAR":0.00045751,"MEAN_MOTION_DOT":3.0e-5,"MEAN_MOTION_DDOT":0},{"OBJECT_NAME":"KUIPER-00251","OBJECT_ID":"2025-301Z","EPOCH":"2026-03-26T12:00:01.999296","MEAN_MOTION":15.12461514,"ECCENTRICITY":0.0009779,"INCLINATION":51.8827,"RA_OF_ASC_NODE":345.3724,"ARG_OF_PERICENTER":114.1768,"MEAN_ANOMALY":162.1199,"EPHEMERIS_TYPE":0,"CLASSIFICATION_TYPE":"U","NORAD_CAT_ID":67156,"ELEMENT_SET_NO":999,"REV_AT_EPOCH":363,"BSTAR":-0.11398,"MEAN_MOTION_DOT":-0.01829024,"MEAN_MOTION_DDOT":0},{"OBJECT_NAME":"KUIPER-00252","OBJECT_ID":"2025-301AA","EPOCH":"2026-03-26T12:00:01.999296","MEAN_MOTION":15.03404219,"ECCENTRICITY":0.0008308,"INCLINATION":51.885,"RA_OF_ASC_NODE":346.6417,"ARG_OF_PERICENTER":134.6009,"MEAN_ANOMALY":312.821,"EPHEMERIS_TYPE":0,"CLASSIFICATION_TYPE":"U","NORAD_CAT_ID":67157,"ELEMENT_SET_NO":999,"REV_AT_EPOCH":510,"BSTAR":-0.13764,"MEAN_MOTION_DOT":-0.01730384,"MEAN_MOTION_DDOT":0},{"OBJECT_NAME":"KUIPER-00261","OBJECT_ID":"2025-301AB","EPOCH":"2026-03-26T10:45:28.169280","MEAN_MOTION":14.76487324,"ECCENTRICITY":0.0002236,"INCLINATION":51.903,"RA_OF_ASC_NODE":356.3296,"ARG_OF_PERICENTER":34.0754,"MEAN_ANOMALY":326.035,"EPHEMERIS_TYPE":0,"CLASSIFICATION_TYPE":"U","NORAD_CAT_ID":67158,"ELEMENT_SET_NO":999,"REV_AT_EPOCH":1614,"BSTAR":0.00037768,"MEAN_MOTION_DOT":2.44e-5,"MEAN_MOTION_DDOT":0},{"OBJECT_NAME":"KUIPER-00265","OBJECT_ID":"2025-301AC","EPOCH":"2026-03-26T11:39:57.082176","MEAN_MOTION":14.79929461,"ECCENTRICITY":0.0001196,"INCLINATION":51.9043,"RA_OF_ASC_NODE":11.3431,"ARG_OF_PERICENTER":92.0851,"MEAN_ANOMALY":268.0248,"EPHEMERIS_TYPE":0,"CLASSIFICATION_TYPE":"U","NORAD_CAT_ID":67159,"ELEMENT_SET_NO":999,"REV_AT_EPOCH":1597,"BSTAR":0.00062882,"MEAN_MOTION_DOT":4.575e-5,"MEAN_MOTION_DDOT":0},{"OBJECT_NAME":"KUIPER-00159","OBJECT_ID":"2026-030A","EPOCH":"2026-03-26T10:00:42.465024","MEAN_MOTION":15.36415571,"ECCENTRICITY":0.0006193,"INCLINATION":51.8855,"RA_OF_ASC_NODE":138.4578,"ARG_OF_PERICENTER":92.4738,"MEAN_ANOMALY":267.6957,"EPHEMERIS_TYPE":0,"CLASSIFICATION_TYPE":"U","NORAD_CAT_ID":67764,"ELEMENT_SET_NO":999,"REV_AT_EPOCH":766,"BSTAR":0.0011144,"MEAN_MOTION_DOT":0.00040045,"MEAN_MOTION_DDOT":0},{"OBJECT_NAME":"KUIPER-00160","OBJECT_ID":"2026-030B","EPOCH":"2026-03-26T03:51:20.796768","MEAN_MOTION":15.3619755,"ECCENTRICITY":0.00059999,"INCLINATION":51.8811,"RA_OF_ASC_NODE":139.7227,"ARG_OF_PERICENTER":100.5141,"MEAN_ANOMALY":259.6522,"EPHEMERIS_TYPE":0,"CLASSIFICATION_TYPE":"U","NORAD_CAT_ID":67765,"ELEMENT_SET_NO":999,"REV_AT_EPOCH":762,"BSTAR":0.001254891,"MEAN_MOTION_DOT":0.00044852,"MEAN_MOTION_DDOT":0},{"OBJECT_NAME":"KUIPER-00177","OBJECT_ID":"2026-030C","EPOCH":"2026-03-26T12:00:01.999296","MEAN_MOTION":15.03819455,"ECCENTRICITY":0.0005034,"INCLINATION":51.9032,"RA_OF_ASC_NODE":139.6726,"ARG_OF_PERICENTER":86.6122,"MEAN_ANOMALY":220.6696,"EPHEMERIS_TYPE":0,"CLASSIFICATION_TYPE":"U","NORAD_CAT_ID":67766,"ELEMENT_SET_NO":999,"REV_AT_EPOCH":554,"BSTAR":0.0008629,"MEAN_MOTION_DOT":0.00011747,"MEAN_MOTION_DDOT":0},{"OBJECT_NAME":"KUIPER-00178","OBJECT_ID":"2026-030D","EPOCH":"2026-03-26T12:00:01.999296","MEAN_MOTION":15.16893933,"ECCENTRICITY":0.0008567,"INCLINATION":51.8849,"RA_OF_ASC_NODE":139.1734,"ARG_OF_PERICENTER":95.8545,"MEAN_ANOMALY":193.1761,"EPHEMERIS_TYPE":0,"CLASSIFICATION_TYPE":"U","NORAD_CAT_ID":67767,"ELEMENT_SET_NO":999,"REV_AT_EPOCH":338,"BSTAR":0.0010291,"MEAN_MOTION_DOT":0.00020295,"MEAN_MOTION_DDOT":0},{"OBJECT_NAME":"KUIPER-00180","OBJECT_ID":"2026-030E","EPOCH":"2026-03-26T12:41:38.551488","MEAN_MOTION":15.29362784,"ECCENTRICITY":0.0013888,"INCLINATION":51.883,"RA_OF_ASC_NODE":139.1533,"ARG_OF_PERICENTER":119.0094,"MEAN_ANOMALY":241.2283,"EPHEMERIS_TYPE":0,"CLASSIFICATION_TYPE":"U","NORAD_CAT_ID":67768,"ELEMENT_SET_NO":999,"REV_AT_EPOCH":766,"BSTAR":-0.0021034,"MEAN_MOTION_DOT":-0.00060825,"MEAN_MOTION_DDOT":0},{"OBJECT_NAME":"KUIPER-00197","OBJECT_ID":"2026-030F","EPOCH":"2026-03-26T12:44:04.847424","MEAN_MOTION":15.3693673,"ECCENTRICITY":0.0002463,"INCLINATION":51.8834,"RA_OF_ASC_NODE":137.7176,"ARG_OF_PERICENTER":72.7408,"MEAN_ANOMALY":287.3848,"EPHEMERIS_TYPE":0,"CLASSIFICATION_TYPE":"U","NORAD_CAT_ID":67769,"ELEMENT_SET_NO":999,"REV_AT_EPOCH":768,"BSTAR":0.00075074,"MEAN_MOTION_DOT":0.00027251,"MEAN_MOTION_DDOT":0},{"OBJECT_NAME":"KUIPER-00198","OBJECT_ID":"2026-030G","EPOCH":"2026-03-26T11:22:51.108960","MEAN_MOTION":15.36625421,"ECCENTRICITY":0.0003862,"INCLINATION":51.8829,"RA_OF_ASC_NODE":138.0762,"ARG_OF_PERICENTER":88.5655,"MEAN_ANOMALY":271.5773,"EPHEMERIS_TYPE":0,"CLASSIFICATION_TYPE":"U","NORAD_CAT_ID":67770,"ELEMENT_SET_NO":999,"REV_AT_EPOCH":767,"BSTAR":0.0010526,"MEAN_MOTION_DOT":0.00038038,"MEAN_MOTION_DDOT":0},{"OBJECT_NAME":"KUIPER-00199","OBJECT_ID":"2026-030H","EPOCH":"2026-03-26T10:55:38.028864","MEAN_MOTION":15.34802555,"ECCENTRICITY":0.0011165,"INCLINATION":51.8822,"RA_OF_ASC_NODE":138.6844,"ARG_OF_PERICENTER":114.5914,"MEAN_ANOMALY":245.6236,"EPHEMERIS_TYPE":0,"CLASSIFICATION_TYPE":"U","NORAD_CAT_ID":67771,"ELEMENT_SET_NO":999,"REV_AT_EPOCH":766,"BSTAR":0.00057534,"MEAN_MOTION_DOT":0.00019411,"MEAN_MOTION_DDOT":0},{"OBJECT_NAME":"KUIPER-00200","OBJECT_ID":"2026-030J","EPOCH":"2026-03-26T07:37:18.240672","MEAN_MOTION":15.3759424,"ECCENTRICITY":0.0001546,"INCLINATION":51.8812,"RA_OF_ASC_NODE":138.5347,"ARG_OF_PERICENTER":7.6913,"MEAN_ANOMALY":352.4097,"EPHEMERIS_TYPE":0,"CLASSIFICATION_TYPE":"U","NORAD_CAT_ID":67772,"ELEMENT_SET_NO":999,"REV_AT_EPOCH":765,"BSTAR":0.00076359,"MEAN_MOTION_DOT":0.0002833,"MEAN_MOTION_DDOT":0}]
